0 DMSP 5D-2 F11 DEB
1 21836U 91082E   13281.45345887  .00004193  00000-0  10157-2 0   588
2 21836 098.7385 181.7518 0001284 283.2830 130.9752 14.53546172144042
0 DMSP 5D-2 F11 DEB
1 21836U 91082E   13283.05004469  .00006458  00000-0  15566-2 0   590
2 21836 098.7385 183.4166 0001176 276.7268 207.3052 14.53569337144277
0 DMSP 5D-2 F11 DEB
1 21836U 91082E   13287.44225115  .00005688  00000-0  13716-2 0   612
2 21836 098.7393 187.9976 0000877 244.7589 170.0135 14.53608459144910
0 DMSP 5D-2 F11 DEB
1 21836U 91082E   13289.18245388  .00007952  00000-0  19108-2 0   627
2 21836 098.7396 189.8126 0000821 224.1020 291.9433 14.53637245145169
0 DMSP 5D-2 F11 DEB
1 21836U 91082E   13290.96681887  .00006637  00000-0  15965-2 0   630
2 21836 098.7395 191.6738 0000815 203.5468 284.8897 14.53657542145424
0 DMSP 5D-2 F11 DEB
1 21836U 91082E   13293.17650507  .00006530  00000-0  15702-2 0   643
2 21836 098.7390 193.9788 0000924 182.0409 343.4477 14.53682665145741
0 DMSP 5D-2 F11 DEB
1 21836U 91082E   13295.30688870  .00008145  00000-0  19541-2 0   654
2 21836 098.7385 196.2012 0001095 165.7013 342.2649 14.53706875146053
